{"names":[{"first":"Chanda","street":"9674 Vrba Freeway","last":"Barillas","city":"Alcott Canyon","state":"BA","zip":"55181"},{"first":"Rosalind","street":"7953 Rosol Circles","last":"Timpson","city":"Savoca","state":"BU","zip":"98214"},{"first":"Demarcus","street":"8114 Makowski Square","last":"Perretta","city":"Karren Key","state":"WI","zip":"73336"},{"first":"Darline","street":"2009 Chmiel Extension","last":"Dier","city":"Zaker Hills","state":"HE","zip":"73331"},{"first":"Kathlene","street":"1348 Supple Lane","last":"Ginsburg","city":"Zhu Coves","state":"BU","zip":"44593"},{"first":"Blanca","street":"6589 Sambrano Squares","last":"Pate","city":"Cashaw Ferry","state":"ST","zip":"27424"},{"first":"Luigi","street":"2155 Dobbin Terrace","last":"Martino","city":"Chernow","state":"WO","zip":"64069"},{"first":"Star","street":"5997 Burchill Ramp","last":"Marciniak","city":"Hoey Cove","state":"PR","zip":"06216"},{"first":"Buena","street":"7796 Grant Ramp","last":"Ebling","city":"Pelcher Mountains","state":"TR","zip":"24285"},{"first":"Valentina","street":"5237 Sedivy Parkways","last":"Iwasaki","city":"Berzins Brooks","state":"BO","zip":"52273"}]}
